0 HAMSAT
1 28650U 05017B   13282.13417973  .00001315  00000-0  16256-3 0  5477
2 28650 097.5659 294.8918 0024206 264.2829 135.6582 14.84178231455982
0 HAMSAT
1 28650U 05017B   13283.70168251  .00001254  00000-0  15532-3 0  5482
2 28650 097.5655 296.3789 0024260 258.7809 231.2297 14.84183098456217
0 HAMSAT
1 28650U 05017B   13286.11202058  .00001202  00000-0  14912-3 0  5501
2 28650 097.5651 298.6655 0024375 250.4028 150.2451 14.84189799456574
0 HAMSAT
1 28650U 05017B   13287.12365677  .00001432  00000-0  17646-3 0  5513
2 28650 097.5650 299.6251 0024432 246.9209 155.6499 14.84191765456725
0 HAMSAT
1 28650U 05017B   13288.13448510  .00002203  00000-0  26805-3 0  5528
2 28650 097.5648 300.5839 0024502 243.4558 156.7356 14.84198232456879
0 HAMSAT
1 28650U 05017B   13289.50535037  .00001612  00000-0  19780-3 0  5539
2 28650 097.5647 301.8842 0024583 238.6839 281.6813 14.84203386457079
0 HAMSAT
1 28650U 05017B   13290.51524308  .00001721  00000-0  21073-3 0  5541
2 28650 097.5648 302.8419 0024641 235.1556 277.8680 14.84206682457222
0 HAMSAT
1 28650U 05017B   13291.77775080  .00002257  00000-0  27438-3 0  5552
2 28650 097.5644 304.0392 0024578 231.0803 183.5522 14.84208212457411
0 HAMSAT
1 28650U 05017B   13292.78855302  .00001802  00000-0  22028-3 0  5566
2 28650 097.5649 304.9977 0024818 227.4125 184.7615 14.84213785457560
0 HAMSAT
1 28650U 05017B   13293.79981547  .00001895  00000-0  23134-3 0  5571
2 28650 097.5650 305.9569 0024909 224.0150 188.1806 14.84216779457715
0 HAMSAT
1 28650U 05017B   13294.82511634  .00002024  00000-0  24662-3 0  5585
2 28650 097.5650 306.9295 0024990 220.5395 266.6525 14.84220624457864
0 HAMSAT
1 28650U 05017B   13295.83608973  .00002085  00000-0  25388-3 0  5594
2 28650 097.5650 307.8884 0025082 217.1136 268.5780 14.84223782458016
